[{"OBJECT_NAME":"STARLINK-34242","OBJECT_ID":"2025-144D","EPOCH":"2026-03-09T14:16:25.231008","MEAN_MOTION":15.30191851,"ECCENTRICITY":9.09e-5,"INCLINATION":53.1578,"RA_OF_ASC_NODE":181.7478,"ARG_OF_PERICENTER":75.9215,"MEAN_ANOMALY":284.1886,"EPHEMERIS_TYPE":0,"CLASSIFICATION_TYPE":"U","NORAD_CAT_ID":64727,"ELEMENT_SET_NO":999,"REV_AT_EPOCH":3969,"BSTAR":0.00092478,"MEAN_MOTION_DOT":0.00027123,"MEAN_MOTION_DDOT":0},{"OBJECT_NAME":"COSMOS 1461","OBJECT_ID":"1983-044A","EPOCH":"2026-03-09T23:27:40.254336","MEAN_MOTION":15.35034079,"ECCENTRICITY":0.00529955,"INCLINATION":64.9902,"RA_OF_ASC_NODE":19.3405,"ARG_OF_PERICENTER":227.9657,"MEAN_ANOMALY":131.6963,"EPHEMERIS_TYPE":0,"CLASSIFICATION_TYPE":"U","NORAD_CAT_ID":14064,"ELEMENT_SET_NO":999,"REV_AT_EPOCH":20189,"BSTAR":0.00068784348,"MEAN_MOTION_DOT":0.00024451,"MEAN_MOTION_DDOT":0}]
